start=new Date('2021-09-02T00:00:00.000Z').valueOf();
sats=[{"GP_ID":"183876632","BSTAR":"0.00008412200000","COUNTRY_CODE":"US","MEAN_ELEMENT_THEORY":"SGP4","REF_FRAME":"TEME","FILE":"3106942","MEAN_MOTION_DOT":"0.00000972","LAUNCH_DATE":"2021-02-04","MEAN_ANOMALY":"330.0087","RA_OF_ASC_NODE":"229.7124","PERIAPSIS":"546.567","OBJECT_ID":"2021-009AJ","NORAD_CAT_ID":"47580","EPHEMERIS_TYPE":"0","DECAY_DATE":null,"ARG_OF_PERICENTER":"30.0957","TLE_LINE2":"2 47580  53.0527 229.7124 0000961  30.0957 330.0087 15.06393963 32062","TIME_SYSTEM":"UTC","TLE_LINE1":"1 47580U 21009AJ  21244.47537028  .00000972  00000-0  84122-4 0  9994","CLASSIFICATION_TYPE":"U","INCLINATION":"53.0527","RCS_SIZE":"LARGE","OBJECT_NAME":"STARLINK-1982","MEAN_MOTION_DDOT":"0.0000000000000","REV_AT_EPOCH":"3206","ELEMENT_SET_NO":"999","SITE":"AFETR","CENTER_NAME":"EARTH","MEAN_MOTION":"15.06393963","OBJECT_TYPE":"PAYLOAD","PERIOD":"95.593","EPOCH":"2021-09-01T11:24:31.992192","ECCENTRICITY":"0.00009610","SEMIMAJOR_AXIS":"6925.367","APOAPSIS":"547.898"},{"MEAN_ELEMENT_THEORY":"SGP4","COUNTRY_CODE":"US","GP_ID":"183877879","BSTAR":"0.00009973000000","LAUNCH_DATE":"2021-02-04","FILE":"3106942","REF_FRAME":"TEME","MEAN_MOTION_DOT":"0.00001204","PERIAPSIS":"546.095","MEAN_ANOMALY":"300.0158","RA_OF_ASC_NODE":"210.3893","DECAY_DATE":null,"EPHEMERIS_TYPE":"0","NORAD_CAT_ID":"47581","OBJECT_ID":"2021-009AK","RCS_SIZE":"LARGE","TLE_LINE2":"2 47581  53.0554 210.3893 0001596  60.0989 300.0158 15.06404342 32324","ARG_OF_PERICENTER":"60.0989","CLASSIFICATION_TYPE":"U","INCLINATION":"53.0554","TIME_SYSTEM":"UTC","TLE_LINE1":"1 47581U 21009AK  21244.32239540  .00001204  00000-0  99730-4 0  9997","MEAN_MOTION":"15.06404342","MEAN_MOTION_DDOT":"0.0000000000000","OBJECT_NAME":"STARLINK-1984","CENTER_NAME":"EARTH","SITE":"AFETR","REV_AT_EPOCH":"3232","ELEMENT_SET_NO":"999","ECCENTRICITY":"0.00015960","EPOCH":"2021-09-01T07:44:14.962560","OBJECT_TYPE":"PAYLOAD","PERIOD":"95.592","APOAPSIS":"548.306","SEMIMAJOR_AXIS":"6925.335"},{"ELEMENT_SET_NO":"999","REV_AT_EPOCH":"3212","CENTER_NAME":"EARTH","SITE":"AFETR","OBJECT_NAME":"STARLINK-1986","MEAN_MOTION_DDOT":"0.0000000000000","MEAN_MOTION":"15.06401796","TIME_SYSTEM":"UTC","TLE_LINE1":"1 47582U 21009AL  21244.84028052 -.00000637  00000-0 -23914-4 0  9991","INCLINATION":"53.0555","CLASSIFICATION_TYPE":"U","ARG_OF_PERICENTER":"45.9670","TLE_LINE2":"2 47582  53.0555 228.0746 0001076  45.9670 314.1407 15.06401796 32122","RCS_SIZE":"LARGE","SEMIMAJOR_AXIS":"6925.343","APOAPSIS":"547.953","PERIOD":"95.592","OBJECT_TYPE":"PAYLOAD","EPOCH":"2021-09-01T20:10:00.236928","ECCENTRICITY":"0.00010760","MEAN_MOTION_DOT":"-0.00000637","REF_FRAME":"TEME","FILE":"3107096","LAUNCH_DATE":"2021-02-04","BSTAR":"-0.00002391400000","GP_ID":"183928151","COUNTRY_CODE":"US","MEAN_ELEMENT_THEORY":"SGP4","OBJECT_ID":"2021-009AL","NORAD_CAT_ID":"47582","EPHEMERIS_TYPE":"0","DECAY_DATE":null,"RA_OF_ASC_NODE":"228.0746","MEAN_ANOMALY":"314.1407","PERIAPSIS":"546.463"},{"EPHEMERIS_TYPE":"0","DECAY_DATE":null,"OBJECT_ID":"2021-009AM","NORAD_CAT_ID":"47583","PERIAPSIS":"546.711","RA_OF_ASC_NODE":"229.9663","MEAN_ANOMALY":"319.6452","LAUNCH_DATE":"2021-02-04","MEAN_MOTION_DOT":"0.00000924","REF_FRAME":"TEME","FILE":"3106942","COUNTRY_CODE":"US","MEAN_ELEMENT_THEORY":"SGP4","BSTAR":"0.00008091900000","GP_ID":"183876882","APOAPSIS":"547.744","SEMIMAJOR_AXIS":"6925.363","EPOCH":"2021-09-01T10:04:55.176384","ECCENTRICITY":"0.00007460","OBJECT_TYPE":"PAYLOAD","PERIOD":"95.592","MEAN_MOTION":"15.06395367","ELEMENT_SET_NO":"999","REV_AT_EPOCH":"3206","CENTER_NAME":"EARTH","SITE":"AFETR","OBJECT_NAME":"STARLINK-1987","MEAN_MOTION_DDOT":"0.0000000000000","RCS_SIZE":"LARGE","TLE_LINE1":"1 47583U 21009AM  21244.42008306  .00000924  00000-0  80919-4 0  9991","TIME_SYSTEM":"UTC","CLASSIFICATION_TYPE":"U","INCLINATION":"53.0552","ARG_OF_PERICENTER":"40.4593","TLE_LINE2":"2 47583  53.0552 229.9663 0000746  40.4593 319.6452 15.06395367 32064"},{"SEMIMAJOR_AXIS":"6757.623","APOAPSIS":"382.897","PERIOD":"92.141","OBJECT_TYPE":"PAYLOAD","EPOCH":"2021-09-01T19:19:08.666688","ECCENTRICITY":"0.00050450","ELEMENT_SET_NO":"999","REV_AT_EPOCH":"3281","CENTER_NAME":"EARTH","SITE":"AFETR","OBJECT_NAME":"STARLINK-1988","MEAN_MOTION_DDOT":"0.0000000000000","MEAN_MOTION":"15.62830244","TLE_LINE1":"1 47584U 21009AN  21244.80496142  .00071590  00000-0  77811-3 0  9996","TIME_SYSTEM":"UTC","CLASSIFICATION_TYPE":"U","INCLINATION":"53.0516","ARG_OF_PERICENTER":"314.8767","TLE_LINE2":"2 47584  53.0516 178.6948 0005045 314.8767  45.1837 15.62830244 32810","RCS_SIZE":"LARGE","OBJECT_ID":"2021-009AN","NORAD_CAT_ID":"47584","EPHEMERIS_TYPE":"0","DECAY_DATE":null,"RA_OF_ASC_NODE":"178.6948","MEAN_ANOMALY":"45.1837","PERIAPSIS":"376.079","MEAN_MOTION_DOT":"0.00071590","REF_FRAME":"TEME","FILE":"3107096","LAUNCH_DATE":"2021-02-04","BSTAR":"0.00077811000000","GP_ID":"183927149","COUNTRY_CODE":"US","MEAN_ELEMENT_THEORY":"SGP4"},{"EPHEMERIS_TYPE":"0","DECAY_DATE":null,"OBJECT_ID":"2021-009AP","NORAD_CAT_ID":"47585","PERIAPSIS":"542.859","MEAN_ANOMALY":"165.1887","RA_OF_ASC_NODE":"230.1399","LAUNCH_DATE":"2021-02-04","REF_FRAME":"TEME","FILE":"3106942","MEAN_MOTION_DOT":"0.00000863","COUNTRY_CODE":"US","MEAN_ELEMENT_THEORY":"SGP4","GP_ID":"183877380","BSTAR":"0.00007696200000","APOAPSIS":"551.591","SEMIMAJOR_AXIS":"6925.360","EPOCH":"2021-09-01T09:06:31.259808","ECCENTRICITY":"0.00063040","PERIOD":"95.592","OBJECT_TYPE":"PAYLOAD","MEAN_MOTION":"15.06396340","OBJECT_NAME":"STARLINK-1989","MEAN_MOTION_DDOT":"0.0000000000000","REV_AT_EPOCH":"3205","ELEMENT_SET_NO":"999","CENTER_NAME":"EARTH","SITE":"AFETR","RCS_SIZE":"LARGE","ARG_OF_PERICENTER":"194.8917","TLE_LINE2":"2 47585  53.0544 230.1399 0006304 194.8917 165.1887 15.06396340 32054","TLE_LINE1":"1 47585U 21009AP  21244.37952847  .00000863  00000-0  76962-4 0  9990","TIME_SYSTEM":"UTC","CLASSIFICATION_TYPE":"U","INCLINATION":"53.0544"},{"OBJECT_TYPE":"PAYLOAD","PERIOD":"95.592","EPOCH":"2021-09-01T11:53:43.779840","ECCENTRICITY":"0.00010390","SEMIMAJOR_AXIS":"6925.340","APOAPSIS":"547.924","TIME_SYSTEM":"UTC","TLE_LINE1":"1 47586U 21009AQ  21244.49564560  .00001345  00000-0  10912-3 0  9993","CLASSIFICATION_TYPE":"U","INCLINATION":"53.0541","ARG_OF_PERICENTER":"66.0184","TLE_LINE2":"2 47586  53.0541 249.6177 0001039  66.0184 294.0914 15.06402913 31794","RCS_SIZE":"LARGE","ELEMENT_SET_NO":"999","REV_AT_EPOCH":"3179","CENTER_NAME":"EARTH","SITE":"AFETR","OBJECT_NAME":"STARLINK-1990","MEAN_MOTION_DDOT":"0.0000000000000","MEAN_MOTION":"15.06402913","RA_OF_ASC_NODE":"249.6177","MEAN_ANOMALY":"294.0914","PERIAPSIS":"546.485","OBJECT_ID":"2021-009AQ","NORAD_CAT_ID":"47586","EPHEMERIS_TYPE":"0","DECAY_DATE":null,"BSTAR":"0.00010912000000","GP_ID":"183878118","COUNTRY_CODE":"US","MEAN_ELEMENT_THEORY":"SGP4","MEAN_MOTION_DOT":"0.00001345","REF_FRAME":"TEME","FILE":"3106942","LAUNCH_DATE":"2021-02-04"},{"MEAN_MOTION_DDOT":"0.0000000000000","OBJECT_NAME":"STARLINK-1991","SITE":"AFETR","CENTER_NAME":"EARTH","REV_AT_EPOCH":"3220","ELEMENT_SET_NO":"999","MEAN_MOTION":"15.06408189","TLE_LINE2":"2 47587  53.0550 219.9384 0000757  26.3158 333.7869 15.06408189 32209","ARG_OF_PERICENTER":"26.3158","CLASSIFICATION_TYPE":"U","INCLINATION":"53.0550","TLE_LINE1":"1 47587U 21009AR  21244.42469407  .00000824  00000-0  74173-4 0  9992","TIME_SYSTEM":"UTC","RCS_SIZE":"LARGE","SEMIMAJOR_AXIS":"6925.323","APOAPSIS":"547.713","PERIOD":"95.592","OBJECT_TYPE":"PAYLOAD","ECCENTRICITY":"0.00007570","EPOCH":"2021-09-01T10:11:33.567648","FILE":"3106942","REF_FRAME":"TEME","MEAN_MOTION_DOT":"0.00000824","LAUNCH_DATE":"2021-02-04","GP_ID":"183876383","BSTAR":"0.00007417300000","MEAN_ELEMENT_THEORY":"SGP4","COUNTRY_CODE":"US","NORAD_CAT_ID":"47587","OBJECT_ID":"2021-009AR","DECAY_DATE":null,"EPHEMERIS_TYPE":"0","MEAN_ANOMALY":"333.7869","RA_OF_ASC_NODE":"219.9384","PERIAPSIS":"546.664"},{"RCS_SIZE":"LARGE","CLASSIFICATION_TYPE":"U","INCLINATION":"53.0547","TLE_LINE1":"1 47588U 21009AS  21244.48274287  .00000872  00000-0  77391-4 0  9997","TIME_SYSTEM":"UTC","TLE_LINE2":"2 47588  53.0547 229.6943 0000872  47.2729 312.8333 15.06395575 32072","ARG_OF_PERICENTER":"47.2729","MEAN_MOTION":"15.06395575","CENTER_NAME":"EARTH","SITE":"AFETR","REV_AT_EPOCH":"3207","ELEMENT_SET_NO":"999","MEAN_MOTION_DDOT":"0.0000000000000","OBJECT_NAME":"STARLINK-1993","ECCENTRICITY":"0.00008720","EPOCH":"2021-09-01T11:35:08.983968","OBJECT_TYPE":"PAYLOAD","PERIOD":"95.592","APOAPSIS":"547.831","SEMIMAJOR_AXIS":"6925.362","MEAN_ELEMENT_THEORY":"SGP4","COUNTRY_CODE":"US","BSTAR":"0.00007739100000","GP_ID":"183876633","LAUNCH_DATE":"2021-02-04","MEAN_MOTION_DOT":"0.00000872","FILE":"3106942","REF_FRAME":"TEME","PERIAPSIS":"546.623","RA_OF_ASC_NODE":"229.6943","MEAN_ANOMALY":"312.8333","DECAY_DATE":null,"EPHEMERIS_TYPE":"0","NORAD_CAT_ID":"47588","OBJECT_ID":"2021-009AS"},{"PERIAPSIS":"546.588","RA_OF_ASC_NODE":"229.8930","MEAN_ANOMALY":"312.7805","EPHEMERIS_TYPE":"0","DECAY_DATE":null,"OBJECT_ID":"2021-009AT","NORAD_CAT_ID":"47589","COUNTRY_CODE":"US","MEAN_ELEMENT_THEORY":"SGP4","BSTAR":"-0.00006547800000","GP_ID":"183877880","LAUNCH_DATE":"2021-02-04","MEAN_MOTION_DOT":"-0.00001256","REF_FRAME":"TEME","FILE":"3106942","EPOCH":"2021-09-01T10:26:10.037760","ECCENTRICITY":"0.00009620","PERIOD":"95.593","OBJECT_TYPE":"PAYLOAD","APOAPSIS":"547.920","SEMIMAJOR_AXIS":"6925.389","RCS_SIZE":"LARGE","TLE_LINE1":"1 47589U 21009AT  21244.43483840 -.00001256  00000-0 -65478-4 0  9992","TIME_SYSTEM":"UTC","INCLINATION":"53.0547","CLASSIFICATION_TYPE":"U","ARG_OF_PERICENTER":"47.3265","TLE_LINE2":"2 47589  53.0547 229.8930 0000962  47.3265 312.7805 15.06386886 32064","MEAN_MOTION":"15.06386886","ELEMENT_SET_NO":"999","REV_AT_EPOCH":"3206","SITE":"AFETR","CENTER_NAME":"EARTH","OBJECT_NAME":"STARLINK-1994","MEAN_MOTION_DDOT":"0.0000000000000"}];
